NORAD_CAT_ID,OBJECT_NAME,OBJECT_TYPE,EPOCH,MEAN_MOTION,ECCENTRICITY,INCLINATION,RA_OF_ASC_NODE,ARG_OF_PERICENTER,MEAN_ANOMALY,BSTAR,MEAN_MOTION_DOT,MEAN_MOTION_DDOT,TLE_LINE0,TLE_LINE1,TLE_LINE2,SEMIMAJOR_AXIS,PERIOD,APOGEE,PERIGEE,DECAYED
52485.0,STARLINK-3913,PAYLOAD,2023-02-13 10:59:31,15.08835738,0.0001512,53.2204,38.0341,90.2948,269.8218,0.00053708,8.269e-05,0.0,0 STARLINK-3913,1 52485U 22049AL  23044.45800330  .00008269  00000-0  53708-3 0  9998,2 52485  53.2204  38.0341 0001512  90.2948 269.8218 15.08835738 43430,6917.893,95.438,540.804,538.712,0.0
52485.0,STARLINK-3913,PAYLOAD,2023-02-14 10:50:18,15.08862337,0.000165,53.2189,33.5713,95.1209,264.9972,0.0011026,0.00017314,0.0,0 STARLINK-3913,1 52485U 22049AL  23045.45160089  .00017314  00000-0  11026-2 0  9996,2 52485  53.2189  33.5713 0001650  95.1209 264.9972 15.08862337 43429,6917.812,95.436,540.819,538.536,0.0
52485.0,STARLINK-3913,PAYLOAD,2023-02-14 15:36:27,15.08838437,0.0002136,53.2185,32.6813,81.2395,278.8839,0.00021712,3.169e-05,0.0,0 STARLINK-3913,1 52485U 22049AL  23045.65032385  .00003169  00000-0  21712-3 0  9992,2 52485  53.2185  32.6813 0002136  81.2395 278.8839 15.08838437 43619,6917.885,95.438,541.228,538.273,0.0
52485.0,STARLINK-3913,PAYLOAD,2023-02-15 10:41:05,15.08868543,0.0001239,53.2184,29.1136,77.5433,282.5698,0.0019885,0.00031526,0.0,0 STARLINK-3913,1 52485U 22049AL  23046.44519909  .00031526  00000-0  19885-2 0  9997,2 52485  53.2184  29.1136 0001239  77.5433 282.5698 15.08868543 43730,6917.793,95.436,540.515,538.801,0.0
52485.0,STARLINK-3913,PAYLOAD,2023-02-15 15:27:14,15.08847416,0.0001511,53.218,28.2211,89.6845,270.4321,0.00097918,0.00015333,0.0,0 STARLINK-3913,1 52485U 22049AL  23046.64392360  .00015333  00000-0  97918-3 0  9991,2 52485  53.2180  28.2211 0001511  89.6845 270.4321 15.08847416 43762,6917.858,95.437,540.768,538.677,0.0
52485.0,STARLINK-3913,PAYLOAD,2023-02-16 05:45:42,15.08894747,0.0001131,53.2181,25.5449,103.9933,256.1185,0.0032234,0.00051464,0.0,0 STARLINK-3913,1 52485U 22049AL  23047.24007046  .00051464  00000-0  32234-2 0  9996,2 52485  53.2181  25.5449 0001131 103.9933 256.1185 15.08894747 43850,6917.713,95.434,540.36,538.796,0.0
52485.0,STARLINK-3913,PAYLOAD,2023-02-16 08:56:27,15.0890519,0.0001083,53.2179,24.95,102.908,257.2033,0.0031888,0.00050919,0.0,0 STARLINK-3913,1 52485U 22049AL  23047.37254551  .00050919  00000-0  31888-2 0  9993,2 52485  53.2179  24.9500 0001083 102.9080 257.2033 15.08905190 43710,6917.681,95.433,540.295,538.797,0.0
52485.0,STARLINK-3913,PAYLOAD,2023-02-16 15:18:01,15.08860216,0.0002289,53.2177,23.7605,73.8449,286.2795,0.00079574,0.00012406,0.0,0 STARLINK-3913,1 52485U 22049AL  23047.63751324  .00012406  00000-0  79574-3 0  9996,2 52485  53.2177  23.7605 0002289  73.8449 286.2795 15.08860216 43913,6917.819,95.436,541.267,538.1,0.0
52485.0,STARLINK-3913,PAYLOAD,2023-02-17 07:11:53,15.08824334,9.96e-05,53.2169,20.7875,74.9068,285.2035,0.0024545,0.00038975,0.0,0 STARLINK-3913,1 52485U 22049AL  23048.29992529  .00038975  00000-0  24545-2 0  9999,2 52485  53.2169  20.7875 0000996  74.9068 285.2035 15.08824334 44011,6917.928,95.439,540.482,539.104,0.0
52485.0,STARLINK-3913,PAYLOAD,2023-02-17 15:08:49,15.08819038,0.0001541,53.2175,19.3009,78.0341,282.0824,0.0022783,0.00036137,0.0,0 STARLINK-3913,1 52485U 22049AL  23048.63113398  .00036137  00000-0  22783-2 0  9996,2 52485  53.2175  19.3009 0001541  78.0341 282.0824 15.08819038 44068,6917.944,95.439,540.876,538.743,0.0
52485.0,STARLINK-3913,PAYLOAD,2023-02-18 02:16:32,15.08839213,0.0002126,53.2175,17.2188,80.0127,280.1105,0.0016232,0.00025639,0.0,0 STARLINK-3913,1 52485U 22049AL  23049.09482011  .00025639  00000-0  16232-2 0  9995,2 52485  53.2175  17.2188 0002126  80.0127 280.1105 15.08839213 44134,6917.883,95.438,541.219,538.277,0.0
52485.0,STARLINK-3913,PAYLOAD,2023-02-18 10:13:27,15.08844896,0.0001327,53.2176,15.7315,79.034,281.0801,0.0012898,0.00020301,0.0,0 STARLINK-3913,1 52485U 22049AL  23049.42601841  .00020301  00000-0  12898-2 0  9991,2 52485  53.2176  15.7315 0001327  79.0340 281.0801 15.08844896 44188,6917.865,95.437,540.648,538.812,0.0
52485.0,STARLINK-3913,PAYLOAD,2023-02-19 03:42:41,15.08876379,0.0001215,53.2174,12.4605,82.5673,277.5458,0.0014056,0.00022175,0.0,0 STARLINK-3913,1 52485U 22049AL  23050.15464774  .00022175  00000-0  14056-2 0  9994,2 52485  53.2174  12.4605 0001215  82.5673 277.5458 15.08876379 44130,6917.769,95.435,540.475,538.794,0.0
52485.0,STARLINK-3913,PAYLOAD,2023-02-19 14:50:22,15.08871907,3.2e-05,53.2198,10.3782,99.6127,260.4901,0.00081405,0.00012703,0.0,0 STARLINK-3913,1 52485U 22049AL  23050.61831951  .00012703  00000-0  81405-3 0  9999,2 52485  53.2198  10.3782 0000320  99.6127 260.4901 15.08871907 44369,6917.783,95.436,539.869,539.426,0.0
52485.0,STARLINK-3913,PAYLOAD,2023-02-20 06:44:14,15.08850865,0.0001694,53.2189,7.404,97.4333,262.6852,0.00042353,6.461e-05,0.0,0 STARLINK-3913,1 52485U 22049AL  23051.28072422  .00006461  00000-0  42353-3 0  9996,2 52485  53.2189   7.4040 0001694  97.4333 262.6852 15.08850865 44463,6917.847,95.437,540.884,538.54,0.0
52485.0,STARLINK-3913,PAYLOAD,2023-02-21 00:13:29,15.08844064,0.0001295,53.2181,4.1359,96.1208,263.9931,0.00065239,0.00010111,0.0,0 STARLINK-3913,1 52485U 22049AL  23052.00936653  .00010111  00000-0  65239-3 0  9997,2 52485  53.2181   4.1359 0001295  96.1208 263.9931 15.08844064 44574,6917.868,95.437,540.629,538.837,0.0
52485.0,STARLINK-3913,PAYLOAD,2023-02-21 06:35:01,15.08865029,0.0001607,53.2179,2.9456,105.5831,254.5338,0.0012645,0.00019908,0.0,0 STARLINK-3913,1 52485U 22049AL  23052.27432264  .00019908  00000-0  12645-2 0  9990,2 52485  53.2179   2.9456 0001607 105.5831 254.5338 15.08865029 44615,6917.804,95.436,540.781,538.557,0.0
52485.0,STARLINK-3913,PAYLOAD,2023-02-21 20:53:29,15.08854552,0.0002157,53.2191,0.268,103.1203,257.003,0.0010068,0.00015778,0.0,0 STARLINK-3913,1 52485U 22049AL  23052.87048541  .00015778  00000-0  10068-2 0  9995,2 52485  53.2191   0.2680 0002157 103.1203 257.0030 15.08854552 44545,6917.836,95.437,541.193,538.209,0.0
52485.0,STARLINK-3913,PAYLOAD,2023-02-22 03:15:02,15.08849051,0.0001574,53.2186,359.0803,93.4094,266.7078,0.00078933,0.000123,0.0,0 STARLINK-3913,1 52485U 22049AL  23053.13544589  .00012300  00000-0  78933-3 0  9992,2 52485  53.2186 359.0803 0001574  93.4094 266.7078 15.08849051 44741,6917.853,95.437,540.807,538.629,0.0
52485.0,STARLINK-3913,PAYLOAD,2023-02-22 20:44:17,15.08830545,0.000156,53.2186,355.8092,89.4869,270.6302,0.00057429,8.861e-05,0.0,0 STARLINK-3913,1 52485U 22049AL  23053.86409383  .00008861  00000-0  57429-3 0  9998,2 52485  53.2186 355.8092 0001560  89.4869 270.6302 15.08830545 44691,6917.909,95.438,540.853,538.695,0.0
52485.0,STARLINK-3913,PAYLOAD,2023-02-23 06:16:36,15.08837963,0.0001173,53.2184,354.025,96.7683,263.3443,0.00056136,8.657e-05,0.0,0 STARLINK-3913,1 52485U 22049AL  23054.26153477  .00008657  00000-0  56136-3 0  9990,2 52485  53.2184 354.0250 0001173  96.7683 263.3443 15.08837963 44912,6917.887,95.438,540.563,538.94,0.0
52485.0,STARLINK-3913,PAYLOAD,2023-02-23 18:59:41,15.08849927,0.0001194,53.2182,351.6472,90.7214,269.3915,0.00068083,0.00010567,0.0,0 STARLINK-3913,1 52485U 22049AL  23054.79145377  .00010567  00000-0  68083-3 0  9995,2 52485  53.2182 351.6472 0001194  90.7214 269.3915 15.08849927 44830,6917.85,95.437,540.541,538.889,0.0
52485.0,STARLINK-3913,PAYLOAD,2023-02-24 06:07:22,15.08881608,0.0001146,53.2173,349.5657,88.0743,272.038,0.0014779,0.00023338,0.0,0 STARLINK-3913,1 52485U 22049AL  23055.25512423  .00023338  00000-0  14779-2 0  9999,2 52485  53.2173 349.5657 0001146  88.0743 272.0380 15.08881608 45060,6917.753,95.435,540.411,538.825,0.0
52485.0,STARLINK-3913,PAYLOAD,2023-02-25 04:22:46,15.0884679,0.0001175,53.2173,345.4035,95.0018,265.1108,0.0010757,0.00016876,0.0,0 STARLINK-3913,1 52485U 22049AL  23056.18248758  .00016876  00000-0  10757-2 0  9990,2 52485  53.2173 345.4035 0001175  95.0018 265.1108 15.08846790 45200,6917.86,95.437,540.537,538.912,0.0
52485.0,STARLINK-3913,PAYLOAD,2023-02-26 04:13:34,15.08856386,0.0001285,53.2177,340.9423,94.4374,265.6765,0.0016422,0.00025956,0.0,0 STARLINK-3913,1 52485U 22049AL  23057.17609181  .00025956  00000-0  16422-2 0  9995,2 52485  53.2177 340.9423 0001285  94.4374 265.6765 15.08856386 45357,6917.83,95.437,540.584,538.806,0.0
52485.0,STARLINK-3913,PAYLOAD,2023-02-26 18:32:02,15.08864191,0.000134,53.2179,338.2663,78.991,281.1232,0.0012371,0.00019468,0.0,0 STARLINK-3913,1 52485U 22049AL  23057.77225051  .00019468  00000-0  12371-2 0  9991,2 52485  53.2179 338.2663 0001340  78.9910 281.1232 15.08864191 45445,6917.806,95.436,540.598,538.744,0.0
52485.0,STARLINK-3913,PAYLOAD,2023-02-27 00:53:34,15.08868889,0.0001456,53.2173,337.0763,103.3867,256.7287,0.0015247,0.0002408,0.0,0 STARLINK-3913,1 52485U 22049AL  23058.03720509  .00024080  00000-0  15247-2 0  9990,2 52485  53.2173 337.0763 0001456 103.3867 256.7287 15.08868889 45322,6917.792,95.436,540.664,538.65,0.0
52485.0,STARLINK-3913,PAYLOAD,2023-02-27 18:22:47,15.08912486,0.0001347,53.217,333.8047,98.351,261.7635,0.0027256,0.00043444,0.0,0 STARLINK-3913,1 52485U 22049AL  23058.76583004  .00043444  00000-0  27256-2 0  9995,2 52485  53.2170 333.8047 0001347  98.3510 261.7635 15.08912486 45433,6917.659,95.433,540.456,538.592,0.0
52485.0,STARLINK-3913,PAYLOAD,2023-02-28 03:55:05,15.08891876,0.0001222,53.2184,332.0236,90.3646,269.7486,0.0010846,0.0001704,0.0,0 STARLINK-3913,1 52485U 22049AL  23059.16326188  .00017040  00000-0  10846-2 0  9998,2 52485  53.2184 332.0236 0001222  90.3646 269.7486 15.08891876 45658,6917.722,95.434,540.432,538.741,0.0
52485.0,STARLINK-3913,PAYLOAD,2023-02-28 21:24:22,15.08802517,0.0002031,53.216,328.748,136.8511,223.2641,-0.00079635,-0.00012927,0.0,0 STARLINK-3913,1 52485U 22049AL  23059.89192392 -.00012927  00000-0 -79635-3 0  9999,2 52485  53.2160 328.7480 0002031 136.8511 223.2641 15.08802517 45608,6917.995,95.44,541.265,538.455,0.0
